{
  "norad_id": 58712,
  "name": "STARLINK-31029",
  "history": [
    {
      "epoch": "2026-03-28T12:55:40.729440",
      "apogee_km": 476.12503190608186,
      "perigee_km": 474.3582308949062,
      "latitude_deg": 12.47117591305623,
      "longitude_deg": 102.91192159987986,
      "semi_major_axis_km": 6853.378631400494,
      "eccentricity": 0.0001289,
      "inclination_deg": 53.1605,
      "raan_deg": 142.2092,
      "arg_perigee_deg": 90.5585,
      "mean_anomaly_deg": 269.5563,
      "mean_motion_rev_day": 15.30191104
    }
  ]
}